{
  "type": "FeatureCollection",
  "features": [
    {
      "type": "Feature",
      "properties": {
        "norad_id": 37056,
        "name": "FENGYUN 1C DEB",
        "group": "fengyun-1c-debris",
        "lat": -62.58595440439906,
        "lon": 161.57295842969532,
        "alt_km": 664.3318133934372,
        "timestamp": "2025-12-03T15:48:03.358724+00:00",
        "meta_object_name": "FENGYUN 1C DEB",
        "meta_object_id": "1999-025EEQ",
        "meta_epoch": "2025-12-02T18:49:33.122496",
        "meta_mean_motion": 14.50392261,
        "meta_eccentricity": 0.02685391,
        "meta_inclination": 98.9834,
        "meta_ra_of_asc_node": 358.398,
        "meta_arg_of_pericenter": 175.7321,
        "meta_mean_anomaly": 184.6254,
        "meta_ephemeris_type": 0,
        "meta_classification_type": "U",
        "meta_norad_cat_id": 37056,
        "meta_element_set_no": 999,
        "meta_rev_at_epoch": 65267,
        "meta_bstar": 0.00040584173,
        "meta_mean_motion_dot": 2.461e-05,
        "meta_mean_motion_ddot": 0,
        "tle_line1": "1 37056U 99025EEQ 25336.78441114  .00002461  00000+0  40584-3 0  9991",
        "tle_line2": "2 37056  98.9834 358.3980 0268539 175.7321 184.6254 14.50392261652678"
      },
      "geometry": {
        "type": "Point",
        "coordinates": [
          161.57295842969532,
          -62.58595440439906
        ]
      }
    },
    {
      "type": "Feature",
      "properties": {
        "norad_id": 37057,
        "name": "FENGYUN 1C DEB",
        "group": "fengyun-1c-debris",
        "lat": -28.56627886881734,
        "lon": -2.358691220037519,
        "alt_km": 1114.7904203053795,
        "timestamp": "2025-12-03T15:48:03.358733+00:00",
        "meta_object_name": "FENGYUN 1C DEB",
        "meta_object_id": "1999-025EER",
        "meta_epoch": "2025-11-29T19:03:44.604864",
        "meta_mean_motion": 13.96084171,
        "meta_eccentricity": 0.02847546,
        "meta_inclination": 98.9242,
        "meta_ra_of_asc_node": 348.9836,
        "meta_arg_of_pericenter": 175.0613,
        "meta_mean_anomaly": 185.3468,
        "meta_ephemeris_type": 0,
        "meta_classification_type": "U",
        "meta_norad_cat_id": 37057,
        "meta_element_set_no": 999,
        "meta_rev_at_epoch": 63417,
        "meta_bstar": 7.4994396e-05,
        "meta_mean_motion_dot": 1.02e-06,
        "meta_mean_motion_ddot": 0,
        "tle_line1": "1 37057U 99025EER 25333.79426626  .00000102  00000+0  74994-4 0  9994",
        "tle_line2": "2 37057  98.9242 348.9836 0284754 175.0613 185.3468 13.96084171634178"
      },
      "geometry": {
        "type": "Point",
        "coordinates": [
          -2.358691220037519,
          -28.56627886881734
        ]
      }
    },
    {
      "type": "Feature",
      "properties": {
        "norad_id": 37061,
        "name": "FENGYUN 1C DEB",
        "group": "fengyun-1c-debris",
        "lat": 47.53586608401021,
        "lon": -126.96018082922795,
        "alt_km": 1303.0528121405814,
        "timestamp": "2025-12-03T15:48:03.358742+00:00",
        "meta_object_name": "FENGYUN 1C DEB",
        "meta_object_id": "1999-025EEV",
        "meta_epoch": "2025-12-01T10:10:50.606976",
        "meta_mean_motion": 13.13334717,
        "meta_eccentricity": 0.08033625,
        "meta_inclination": 98.0872,
        "meta_ra_of_asc_node": 42.3779,
        "meta_arg_of_pericenter": 33.6002,
        "meta_mean_anomaly": 331.3499,
        "meta_ephemeris_type": 0,
        "meta_classification_type": "U",
        "meta_norad_cat_id": 37061,
        "meta_element_set_no": 999,
        "meta_rev_at_epoch": 8007,
        "meta_bstar": 0.0024469961,
        "meta_mean_motion_dot": 4.753e-05,
        "meta_mean_motion_ddot": 0,
        "tle_line1": "1 37061U 99025EEV 25335.42419684  .00004753  00000+0  24470-2 0  9995",
        "tle_line2": "2 37061  98.0872  42.3779 0803362  33.6002 331.3499 13.13334717 80071"
      },
      "geometry": {
        "type": "Point",
        "coordinates": [
          -126.96018082922795,
          47.53586608401021
        ]
      }
    },
    {
      "type": "Feature",
      "properties": {
        "norad_id": 37064,
        "name": "FENGYUN 1C DEB",
        "group": "fengyun-1c-debris",
        "lat": -72.57331671480107,
        "lon": 159.78086625189732,
        "alt_km": 917.8075816357896,
        "timestamp": "2025-12-03T15:48:03.358751+00:00",
        "meta_object_name": "FENGYUN 1C DEB",
        "meta_object_id": "1999-025EEY",
        "meta_epoch": "2025-11-25T16:29:09.460320",
        "meta_mean_motion": 14.15612933,
        "meta_eccentricity": 0.01070067,
        "meta_inclination": 98.9095,
        "meta_ra_of_asc_node": 121.83,
        "meta_arg_of_pericenter": 150.7609,
        "meta_mean_anomaly": 209.9612,
        "meta_ephemeris_type": 0,
        "meta_classification_type": "U",
        "meta_norad_cat_id": 37064,
        "meta_element_set_no": 999,
        "meta_rev_at_epoch": 81294,
        "meta_bstar": 0.0049331234,
        "meta_mean_motion_dot": 0.00010179,
        "meta_mean_motion_ddot": 0,
        "tle_line1": "1 37064U 99025EEY 25329.68691505  .00010179  00000+0  49331-2 0  9995",
        "tle_line2": "2 37064  98.9095 121.8300 0107006 150.7609 209.9612 14.15612933812947"
      },
      "geometry": {
        "type": "Point",
        "coordinates": [
          159.78086625189732,
          -72.57331671480107
        ]
      }
    },
    {
      "type": "Feature",
      "properties": {
        "norad_id": 37065,
        "name": "FENGYUN 1C DEB",
        "group": "fengyun-1c-debris",
        "lat": -36.831714577650835,
        "lon": -40.939324562491564,
        "alt_km": 882.4664954234149,
        "timestamp": "2025-12-03T15:48:03.358762+00:00",
        "meta_object_name": "FENGYUN 1C DEB",
        "meta_object_id": "1999-025EEZ",
        "meta_epoch": "2025-11-29T04:41:54.899520",
        "meta_mean_motion": 13.59013412,
        "meta_eccentricity": 0.0298251,
        "meta_inclination": 103.2865,
        "meta_ra_of_asc_node": 143.2258,
        "meta_arg_of_pericenter": 271.3733,
        "meta_mean_anomaly": 85.3247,
        "meta_ephemeris_type": 0,
        "meta_classification_type": "U",
        "meta_norad_cat_id": 37065,
        "meta_element_set_no": 999,
        "meta_rev_at_epoch": 22018,
        "meta_bstar": 0.0027486644,
        "meta_mean_motion_dot": 2.63e-05,
        "meta_mean_motion_ddot": 0,
        "tle_line1": "1 37065U 99025EEZ 25333.19577430  .00002630  00000+0  27487-2 0  9998",
        "tle_line2": "2 37065 103.2865 143.2258 0298251 271.3733  85.3247 13.59013412220187"
      },
      "geometry": {
        "type": "Point",
        "coordinates": [
          -40.939324562491564,
          -36.831714577650835
        ]
      }
    },
    {
      "type": "Feature",
      "properties": {
        "norad_id": 37067,
        "name": "FENGYUN 1C DEB",
        "group": "fengyun-1c-debris",
        "lat": 56.19489300485615,
        "lon": 113.37108652966158,
        "alt_km": 778.9101057538719,
        "timestamp": "2025-12-03T15:48:03.358771+00:00",
        "meta_object_name": "FENGYUN 1C DEB",
        "meta_object_id": "1999-025EFB",
        "meta_epoch": "2025-12-01T01:28:45.685632",
        "meta_mean_motion": 14.00126048,
        "meta_eccentricity": 0.01543927,
        "meta_inclination": 99.5381,
        "meta_ra_of_asc_node": 276.1211,
        "meta_arg_of_pericenter": 143.8371,
        "meta_mean_anomaly": 217.3351,
        "meta_ephemeris_type": 0,
        "meta_classification_type": "U",
        "meta_norad_cat_id": 37067,
        "meta_element_set_no": 999,
        "meta_rev_at_epoch": 57245,
        "meta_bstar": 0.0033441355,
        "meta_mean_motion_dot": 5.422e-05,
        "meta_mean_motion_ddot": 0,
        "tle_line1": "1 37067U 99025EFB 25335.06163988  .00005422  00000+0  33441-2 0  9996",
        "tle_line2": "2 37067  99.5381 276.1211 0154392 143.8371 217.3351 14.00126048572452"
      },
      "geometry": {
        "type": "Point",
        "coordinates": [
          113.37108652966158,
          56.19489300485615
        ]
      }
    },
    {
      "type": "Feature",
      "properties": {
        "norad_id": 37069,
        "name": "FENGYUN 1C DEB",
        "group": "fengyun-1c-debris",
        "lat": -59.859500548843066,
        "lon": 121.71624774215026,
        "alt_km": 876.3245775905052,
        "timestamp": "2025-12-03T15:48:03.358780+00:00",
        "meta_object_name": "FENGYUN 1C DEB",
        "meta_object_id": "1999-025EFD",
        "meta_epoch": "2025-11-28T16:06:15.972480",
        "meta_mean_motion": 13.37875406,
        "meta_eccentricity": 0.0426586,
        "meta_inclination": 95.8475,
        "meta_ra_of_asc_node": 308.9975,
        "meta_arg_of_pericenter": 294.4722,
        "meta_mean_anomaly": 61.249,
        "meta_ephemeris_type": 0,
        "meta_classification_type": "U",
        "meta_norad_cat_id": 37069,
        "meta_element_set_no": 999,
        "meta_rev_at_epoch": 87520,
        "meta_bstar": 0.0036837011,
        "meta_mean_motion_dot": 3.263e-05,
        "meta_mean_motion_ddot": 0,
        "tle_line1": "1 37069U 99025EFD 25332.67101820  .00003263  00000+0  36837-2 0  9992",
        "tle_line2": "2 37069  95.8475 308.9975 0426586 294.4722  61.2490 13.37875406875205"
      },
      "geometry": {
        "type": "Point",
        "coordinates": [
          121.71624774215026,
          -59.859500548843066
        ]
      }
    }
  ]
}